[{"OBJECT_NAME":"LEMUR-2-AMANDA-SVANTE","OBJECT_ID":"2021-034B","EPOCH":"2026-03-09T18:37:58.823328","MEAN_MOTION":15.28469003,"ECCENTRICITY":0.00027027,"INCLINATION":97.5829,"RA_OF_ASC_NODE":144.8625,"ARG_OF_PERICENTER":205.4721,"MEAN_ANOMALY":154.6385,"EPHEMERIS_TYPE":0,"CLASSIFICATION_TYPE":"U","NORAD_CAT_ID":48269,"ELEMENT_SET_NO":999,"REV_AT_EPOCH":26584,"BSTAR":0.0011134246,"MEAN_MOTION_DOT":0.00030872,"MEAN_MOTION_DDOT":0},{"OBJECT_NAME":"STARLINK-30376","OBJECT_ID":"2023-134M","EPOCH":"2026-03-09T09:17:58.168320","MEAN_MOTION":15.26735214,"ECCENTRICITY":0.00017213,"INCLINATION":42.9998,"RA_OF_ASC_NODE":195.9286,"ARG_OF_PERICENTER":263.6896,"MEAN_ANOMALY":96.3759,"EPHEMERIS_TYPE":0,"CLASSIFICATION_TYPE":"U","NORAD_CAT_ID":57782,"ELEMENT_SET_NO":999,"REV_AT_EPOCH":13946,"BSTAR":-0.00011319869,"MEAN_MOTION_DOT":-3.295e-5,"MEAN_MOTION_DDOT":0}]
